ONEWEB-0371             
1 49297U 21090U   25349.94068212  .00000087  00000+0  18477-3 0  9992
2 49297  87.9204 341.4267 0001756  83.4900 276.6432 13.19724248202288
ONEWEB-0372             
1 49298U 21090V   25349.90565935  .00000058  00000+0  10987-3 0  9999
2 49298  87.9197 310.9930 0001975  79.7367 280.3989 13.20770902205648
ONEWEB-0373             
1 49299U 21090W   25349.93262325 -.00000030  00000+0 -10520-3 0  9995
2 49299  87.9194 311.0006 0001808  84.3544 275.7796 13.20769899206835
ONEWEB-0374             
1 49300U 21090X   25349.90320601 -.00000427  00000+0 -11862-2 0  9996
2 49300  87.8993 326.2131 0002196  97.0609 263.0771 13.14502189203486
ONEWEB-0375             
1 49301U 21090Y   25349.92001133 -.00000013  00000+0 -63089-4 0  9996
2 49301  87.9198 310.9837 0001849  99.7127 260.4216 13.20770405206333
ONEWEB-0376             
1 49302U 21090Z   25349.93909217  .00000087  00000+0  18545-3 0  9993
2 49302  87.9210 341.4145 0001952  81.1026 279.0328 13.19723370202285
ONEWEB-0377             
1 49303U 21090AA  25349.90593227  .00000057  00000+0  10724-3 0  9999
2 49303  87.9205 310.9879 0001685  84.4117 275.7208 13.20769779206329
ONEWEB-0378             
1 49304U 21090AB  25349.92804269 -.00000017  00000+0 -73643-4 0  9991
2 49304  87.9202 310.9976 0001884  85.5040 274.6308 13.20770608205593
